H1 CPF 01  gfz 2022 03 05 01  5641 terrasarx 
H2 0702601  6201 31698    2022 03 05 00 59 42 2022 03 10 00 00 42   120 1 1  0 0 0
H9
10 0 59643  20142.000000  0   -5895635.287   -196876.035   3548704.523
10 0 59643  20262.000000  0   -5383697.071      5128.900   4288160.021
10 0 59643  20382.000000  0   -4774208.664    197231.182   4952128.598
10 0 59643  20502.000000  0   -4078069.377    374462.412   5528953.601
10 0 59643  20622.000000  0   -3307770.463    532321.493   6008522.677
10 0 59643  20742.000000  0   -2477162.051    666878.395   6382440.866
10 0 59643  20862.000000  0   -1601197.656    774862.946   6644172.038
10 0 59643  20982.000000  0    -695660.005    853737.992   6789147.093
10 0 59643  21102.000000  0     223124.654    901754.467   6814837.530
10 0 59643  21222.000000  0    1138580.053    917987.829   6720796.310
10 0 59643  21342.000000  0    2034177.671    902355.896   6508665.280
10 0 59643  21462.000000  0    2893734.094    855617.174   6182148.539
10 0 59643  21582.000000  0    3701704.368    779349.717   5746952.588
10 0 59643  21702.000000  0    4443465.992    675911.184   5210691.507
10 0 59643  21822.000000  0    5105587.788    548380.128   4582760.305
10 0 59643  21942.000000  0    5676081.370    400479.538   3874176.879
10 0 59643  22062.000000  0    6144628.566    236485.543   3097391.627
10 0 59643  22182.000000  0    6502778.031     61122.419   2266068.265
10 0 59643  22302.000000  0    6744106.494   -120555.577   1394841.749
10 0 59643  22422.000000  0    6864342.700   -303290.467    499055.739
10 0 59643  22542.000000  0    6861448.194   -481751.986   -405515.121
10 0 59643  22662.000000  0    6735653.005   -650672.103  -1302952.620
10 0 59643  22782.000000  0    6489444.911   -804978.249  -2177483.710
10 0 59643  22902.000000  0    6127513.332   -939921.777  -3013765.101
10 0 59643  23022.000000  0    5656650.014  -1051198.694  -3797156.799
10 0 59643  23142.000000  0    5085609.530  -1135059.313  -4513979.538
10 0 59643  23262.000000  0    4424934.126  -1188404.011  -5151750.573
10 0 59643  23382.000000  0    3686748.402  -1208864.088  -5699394.968
10 0 59643  23502.000000  0    2884527.432  -1194866.268  -6147428.940
10 0 59643  23622.000000  0    2032845.126  -1145678.459  -6488112.816
10 0 59643  23742.000000  0    1147107.745  -1061436.195  -6715573.670
10 0 59643  23862.000000  0     243277.051   -943151.439  -6825896.417
10 0 59643  23982.000000  0    -662412.856   -792701.945  -6817183.840
10 0 59643  24102.000000  0   -1553740.177   -612802.032  -6689585.490
10 0 59643  24222.000000  0   -2414779.743   -406954.638  -6445295.439
10 0 59643  24342.000000  0   -3230180.935   -179385.809  -6088517.333
10 0 59643  24462.000000  0   -3985436.012     65037.609  -5625400.690
10 0 59643  24582.000000  0   -4667138.545    320906.331  -5063945.787
10 0 59643  24702.000000  0   -5263224.025    582380.770  -4413876.749
10 0 59643  24822.000000  0   -5763191.305    843316.240  -3686485.315
10 0 59643  24942.000000  0   -6158298.423   1097399.137  -2894443.546
10 0 59643  25062.000000  0   -6441727.805   1338290.381  -2051588.853
10 0 59643  25182.000000  0   -6608716.635   1559772.718  -1172684.598
10 0 59643  25302.000000  0   -6656649.455   1755899.656   -273159.428
10 0 59643  25422.000000  0   -6585107.215   1921140.051    631170.222
10 0 59643  25542.000000  0   -6395871.987   2050516.089   1524385.431
10 0 59643  25662.000000  0   -6092888.249   2139731.507   2390753.778
10 0 59643  25782.000000  0   -5682179.964   2185285.837   3215015.546
10 0 59643  25902.000000  0   -5171725.857   2184570.936   3982660.392
10 0 59643  26022.000000  0   -4571296.053   2135947.953   4680187.441
10 0 59643  26142.000000  0   -3892256.120   2038803.473   5295343.648
10 0 59643  26262.000000  0   -3147343.926   1893583.779   5817337.527
10 0 59643  26382.000000  0   -2350423.011   1701806.890   6237026.051
10 0 59643  26502.000000  0   -1516217.056   1466050.998   6547069.600
10 0 59643  26622.000000  0    -660033.110   1189920.131   6742053.332
10 0 59643  26742.000000  0     202520.379    877988.582   6818574.774
10 0 59643  26862.000000  0    1055817.226    535724.573   6775299.260
10 0 59643  26982.000000  0    1884495.300    169394.664   6612981.580
10 0 59643  27102.000000  0    2673731.808   -214050.090   6334454.241
10 0 59643  27222.000000  0    3409508.907   -607105.067   5944582.395
10 0 59643  27342.000000  0    4078865.434  -1001857.162   5450183.777
10 0 59643  27462.000000  0    4670129.426  -1390142.735   4859915.283
10 0 59643  27582.000000  0    5173127.827  -1763714.867   4184127.510
10 0 59643  27702.000000  0    5579370.412  -2114416.383   3434687.899
10 0 59643  27822.000000  0    5882202.208  -2434356.327   2624773.665
10 0 59643  27942.000000  0    6076919.855  -2716084.831   1768638.797
10 0 59643  28062.000000  0    6160850.712  -2952761.727    881360.030
10 0 59643  28182.000000  0    6133391.946  -3138315.790    -21435.767
10 0 59643  28302.000000  0    5996006.813  -3267589.238   -923854.957
10 0 59643  28422.000000  0    5752179.518  -3336464.297  -1810026.974
10 0 59643  28542.000000  0    5407327.722  -3341967.561  -2664391.278
10 0 59643  28662.000000  0    4968678.906  -3282351.112  -3471976.050
10 0 59643  28782.000000  0    4445111.884  -3157148.089  -4218663.283
10 0 59643  28902.000000  0    3846968.798  -2967202.300  -4891434.874
10 0 59643  29022.000000  0    3185841.589  -2714670.024  -5478594.812
10 0 59643  29142.000000  0    2474340.760  -2402995.826  -5969962.952
10 0 59643  29262.000000  0    1725852.319  -2036864.768  -6357041.280
10 0 59643  29382.000000  0     954284.607  -1622129.643  -6633151.647
10 0 59643  29502.000000  0     173810.627  -1165715.010  -6793539.864
10 0 59643  29622.000000  0    -601388.169   -675501.923  -6835448.208
10 0 59643  29742.000000  0   -1357373.411   -160194.255  -6758157.108
10 0 59643  29862.000000  0   -2080694.869    370832.315  -6562995.887
10 0 59643  29982.000000  0   -2758624.064    907696.351  -6253321.629
10 0 59643  30102.000000  0   -3379373.647   1440189.544  -5834467.988
10 0 59643  30222.000000  0   -3932301.345   1957966.179  -5313663.928
10 0 59643  30342.000000  0   -4408095.827   2450741.115  -4699920.826
10 0 59643  30462.000000  0   -4798939.113   2908493.128  -4003886.909
10 0 59643  30582.000000  0   -5098641.976   3321667.811  -3237672.119
10 0 59643  30702.000000  0   -5302751.134   3681377.872  -2414645.810
10 0 59643  30822.000000  0   -5408623.509   3979595.864  -1549207.222
10 0 59643  30942.000000  0   -5415466.274   4209333.593   -656533.825
10 0 59643  31062.000000  0   -5324340.248   4364803.997    247688.654
10 0 59643  31182.000000  0   -5138125.945   4441561.540   1147549.301
10 0 59643  31302.000000  0   -4861451.190   4436614.907   2027201.664
10 0 59643  31422.000000  0   -4500583.378   4348510.314   2871151.740
10 0 59643  31542.000000  0   -4063288.995   4177384.411   3664538.600
10 0 59643  31662.000000  0   -3558664.448   3924983.934   4393401.992
10 0 59643  31782.000000  0   -2996943.308   3594652.418   5044931.019
10 0 59643  31902.000000  0   -2389283.801   3191284.477   5607689.867
10 0 59643  32022.000000  0   -1747542.016   2721249.378   6071815.924
10 0 59643  32142.000000  0   -1084035.959   2192285.578   6429187.684
10 0 59643  32262.000000  0    -411306.626   1613368.552   6673559.060
10 0 59643  32382.000000  0     258118.391    994556.146   6800662.708
10 0 59643  32502.000000  0     911958.121    346812.426   6808279.843
10 0 59643  32622.000000  0    1538402.363   -318185.995   6696276.207
10 0 59643  32742.000000  0    2126324.085   -988259.718   6466605.110
10 0 59643  32862.000000  0    2665476.833  -1650948.938   6123275.790
10 0 59643  32982.000000  0    3146675.179  -2293744.713   5672288.856
10 0 59643  33102.000000  0    3561954.290  -2904326.145   5121536.734
10 0 59643  33222.000000  0    3904705.731  -3470798.568   4480671.759
10 0 59643  33342.000000  0    4169787.316  -3981928.968   3760941.946
10 0 59643  33462.000000  0    4353604.266  -4427373.533   2974996.453
10 0 59643  33582.000000  0    4454159.957  -4797892.161   2136663.555
10 0 59643  33702.000000  0    4471074.466  -5085544.024   1260704.056
10 0 59643  33822.000000  0    4405569.506  -5283859.554    362545.560
10 0 59643  33942.000000  0    4260420.146  -5387983.727   -541996.570
10 0 59643  34062.000000  0    4039876.496  -5394788.646  -1437005.853
10 0 59643  34182.000000  0    3749554.201  -5302950.796  -2306754.238
10 0 59643  34302.000000  0    3396298.437  -5112991.155  -3135985.171
10 0 59643  34422.000000  0    2988025.189  -4827277.888  -3910185.997
10 0 59643  34542.000000  0    2533543.260  -4449992.703  -4615842.787
10 0 59643  34662.000000  0    2042362.374  -3987061.470  -5240673.431
10 0 59643  34782.000000  0    1524493.301  -3446051.294  -5773833.609
10 0 59643  34902.000000  0     990244.350  -2836039.661  -6206094.747
10 0 59643  35022.000000  0     450017.260  -2167457.219  -6529993.419
10 0 59643  35142.000000  0     -85893.113  -1451906.059  -6739949.414
10 0 59643  35262.000000  0    -607490.602   -701957.953  -6832351.703
10 0 59643  35382.000000  0   -1105258.888     69063.710  -6805613.359
10 0 59643  35502.000000  0   -1570331.059    847315.087  -6660195.031
10 0 59643  35622.000000  0   -1994643.876   1618674.002  -6398597.701
10 0 59643  35742.000000  0   -2371074.440   2368989.755  -6025324.298
10 0 59643  35862.000000  0   -2693559.398   3084337.709  -5546811.567
10 0 59643  35982.000000  0   -2957193.493   3751275.835  -4971330.058
10 0 59643  36102.000000  0   -3158307.095   4357098.719  -4308853.040
10 0 59643  36222.000000  0   -3294519.748   4890083.849  -3570893.067
10 0 59643  36342.000000  0   -3364767.391   5339723.460  -2770309.470
10 0 59643  36462.000000  0   -3369304.418   5696938.810  -1921091.281
10 0 59643  36582.000000  0   -3309679.720   5954273.007  -1038115.082
99
